start=new Date('2022-03-13T00:00:00.000Z').valueOf();
sats=[{"TLE_LINE2":"2 44765  53.0534 271.1658 0001732  69.1028 291.0146 15.06407860128738","CLASSIFICATION_TYPE":"U","PERIAPSIS":"545.990","LAUNCH_DATE":"2019-11-11","RA_OF_ASC_NODE":"271.1658","RCS_SIZE":"LARGE","DECAY_DATE":null,"TIME_SYSTEM":"UTC","TLE_LINE1":"1 44765U 19074BE  22071.83670053  .00002159  00000-0  16378-3 0  9996","OBJECT_TYPE":"PAYLOAD","COUNTRY_CODE":"US","INCLINATION":"53.0534","EPHEMERIS_TYPE":"0","GP_ID":"198603111","MEAN_ELEMENT_THEORY":"SGP4","MEAN_ANOMALY":"291.0146","MEAN_MOTION":"15.06407860","ELEMENT_SET_NO":"999","REF_FRAME":"TEME","PERIOD":"95.592","ARG_OF_PERICENTER":"69.1028","OBJECT_ID":"2019-074BE","MEAN_MOTION_DOT":"0.00002159","OBJECT_NAME":"STARLINK-1060","FILE":"3356931","SEMIMAJOR_AXIS":"6925.324","APOAPSIS":"548.389","MEAN_MOTION_DDOT":"0.0000000000000","SITE":"AFETR","REV_AT_EPOCH":"12873","BSTAR":"0.00016378000000","CENTER_NAME":"EARTH","ECCENTRICITY":"0.00017320","NORAD_CAT_ID":"44765","EPOCH":"2022-03-12T20:04:50.925792"},{"CLASSIFICATION_TYPE":"U","TLE_LINE2":"2 44766  53.0556 290.8806 0001369  80.6308 279.4836 15.06410122128473","PERIAPSIS":"546.234","LAUNCH_DATE":"2019-11-11","RCS_SIZE":"LARGE","RA_OF_ASC_NODE":"290.8806","DECAY_DATE":null,"TIME_SYSTEM":"UTC","TLE_LINE1":"1 44766U 19074BF  22071.90120952 -.00001573  00000-0 -86694-4 0  9993","COUNTRY_CODE":"US","INCLINATION":"53.0556","OBJECT_TYPE":"PAYLOAD","EPHEMERIS_TYPE":"0","GP_ID":"198601859","MEAN_ELEMENT_THEORY":"SGP4","MEAN_MOTION":"15.06410122","MEAN_ANOMALY":"279.4836","ELEMENT_SET_NO":"999","REF_FRAME":"TEME","PERIOD":"95.591","ARG_OF_PERICENTER":"80.6308","OBJECT_ID":"2019-074BF","MEAN_MOTION_DOT":"-0.00001573","OBJECT_NAME":"STARLINK-1061","SEMIMAJOR_AXIS":"6925.318","FILE":"3356931","APOAPSIS":"548.131","MEAN_MOTION_DDOT":"0.0000000000000","REV_AT_EPOCH":"12847","SITE":"AFETR","BSTAR":"-0.00008669400000","ECCENTRICITY":"0.00013690","CENTER_NAME":"EARTH","EPOCH":"2022-03-12T21:37:44.502528","NORAD_CAT_ID":"44766"},{"DECAY_DATE":null,"TIME_SYSTEM":"UTC","TLE_LINE1":"1 44767U 19074BG  22071.89382824  .00001247  00000-0  10260-3 0  9991","COUNTRY_CODE":"US","INCLINATION":"53.0542","OBJECT_TYPE":"PAYLOAD","CLASSIFICATION_TYPE":"U","TLE_LINE2":"2 44767  53.0542 290.9083 0001649  62.8164 297.2993 15.06402013128472","PERIAPSIS":"546.065","LAUNCH_DATE":"2019-11-11","RCS_SIZE":"LARGE","RA_OF_ASC_NODE":"290.9083","MEAN_MOTION":"15.06402013","MEAN_ANOMALY":"297.2993","EPHEMERIS_TYPE":"0","MEAN_ELEMENT_THEORY":"SGP4","GP_ID":"198602109","MEAN_MOTION_DOT":"0.00001247","OBJECT_NAME":"STARLINK-1062","SEMIMAJOR_AXIS":"6925.342","FILE":"3356931","ELEMENT_SET_NO":"999","REF_FRAME":"TEME","PERIOD":"95.592","OBJECT_ID":"2019-074BG","ARG_OF_PERICENTER":"62.8164","CENTER_NAME":"EARTH","ECCENTRICITY":"0.00016490","EPOCH":"2022-03-12T21:27:06.759936","NORAD_CAT_ID":"44767","APOAPSIS":"548.349","MEAN_MOTION_DDOT":"0.0000000000000","REV_AT_EPOCH":"12847","SITE":"AFETR","BSTAR":"0.00010260000000"},{"PERIOD":"95.592","REF_FRAME":"TEME","ELEMENT_SET_NO":"999","OBJECT_ID":"2019-074BH","ARG_OF_PERICENTER":"64.6495","MEAN_MOTION_DOT":"-0.00000255","FILE":"3356931","SEMIMAJOR_AXIS":"6925.346","OBJECT_NAME":"STARLINK-1063","MEAN_MOTION_DDOT":"0.0000000000000","APOAPSIS":"548.369","BSTAR":"0.00000180710000","REV_AT_EPOCH":"12848","SITE":"AFETR","ECCENTRICITY":"0.00016720","CENTER_NAME":"EARTH","EPOCH":"2022-03-12T21:58:58.079136","NORAD_CAT_ID":"44768","PERIAPSIS":"546.053","CLASSIFICATION_TYPE":"U","TLE_LINE2":"2 44768  53.0533 290.8116 0001672  64.6495 295.4667 15.06400748128484","RCS_SIZE":"LARGE","RA_OF_ASC_NODE":"290.8116","LAUNCH_DATE":"2019-11-11","TIME_SYSTEM":"UTC","DECAY_DATE":null,"COUNTRY_CODE":"US","INCLINATION":"53.0533","OBJECT_TYPE":"PAYLOAD","TLE_LINE1":"1 44768U 19074BH  22071.91594999 -.00000255  00000-0  18071-5 0  9992","MEAN_ELEMENT_THEORY":"SGP4","GP_ID":"198602861","EPHEMERIS_TYPE":"0","MEAN_MOTION":"15.06400748","MEAN_ANOMALY":"295.4667"},{"MEAN_ANOMALY":"230.6933","MEAN_MOTION":"15.11487503","MEAN_ELEMENT_THEORY":"SGP4","GP_ID":"198603612","EPHEMERIS_TYPE":"0","TIME_SYSTEM":"UTC","DECAY_DATE":null,"OBJECT_TYPE":"PAYLOAD","COUNTRY_CODE":"US","INCLINATION":"53.0019","TLE_LINE1":"1 44770U 19074BK  22071.86066876  .00017786  00000-0  10534-2 0  9996","PERIAPSIS":"530.032","TLE_LINE2":"2 44770  53.0019 281.2407 0002363 129.4267 230.6933 15.11487503128575","CLASSIFICATION_TYPE":"U","RA_OF_ASC_NODE":"281.2407","RCS_SIZE":"LARGE","LAUNCH_DATE":"2019-11-11","ECCENTRICITY":"0.00023630","CENTER_NAME":"EARTH","NORAD_CAT_ID":"44770","EPOCH":"2022-03-12T20:39:21.780864","MEAN_MOTION_DDOT":"0.0000000000000","APOAPSIS":"533.298","BSTAR":"0.00105340000000","SITE":"AFETR","REV_AT_EPOCH":"12857","MEAN_MOTION_DOT":"0.00017786","SEMIMAJOR_AXIS":"6909.800","FILE":"3356931","OBJECT_NAME":"STARLINK-1065","PERIOD":"95.270","REF_FRAME":"TEME","ELEMENT_SET_NO":"999","ARG_OF_PERICENTER":"129.4267","OBJECT_ID":"2019-074BK"},{"TLE_LINE2":"2 44771  53.0548 290.8647 0001559  50.7641 309.3486 15.06404250128471","CLASSIFICATION_TYPE":"U","PERIAPSIS":"546.121","LAUNCH_DATE":"2019-11-11","RA_OF_ASC_NODE":"290.8647","RCS_SIZE":"LARGE","DECAY_DATE":null,"TIME_SYSTEM":"UTC","TLE_LINE1":"1 44771U 19074BL  22071.90489355 -.00000650  00000-0 -24760-4 0  9995","OBJECT_TYPE":"PAYLOAD","COUNTRY_CODE":"US","INCLINATION":"53.0548","EPHEMERIS_TYPE":"0","MEAN_ELEMENT_THEORY":"SGP4","GP_ID":"198602360","MEAN_ANOMALY":"309.3486","MEAN_MOTION":"15.06404250","ELEMENT_SET_NO":"999","REF_FRAME":"TEME","PERIOD":"95.592","ARG_OF_PERICENTER":"50.7641","OBJECT_ID":"2019-074BL","MEAN_MOTION_DOT":"-0.00000650","OBJECT_NAME":"STARLINK-1067","FILE":"3356931","SEMIMAJOR_AXIS":"6925.336","APOAPSIS":"548.280","MEAN_MOTION_DDOT":"0.0000000000000","SITE":"AFETR","REV_AT_EPOCH":"12847","BSTAR":"-0.00002476000000","CENTER_NAME":"EARTH","ECCENTRICITY":"0.00015590","NORAD_CAT_ID":"44771","EPOCH":"2022-03-12T21:43:02.802720"},{"EPHEMERIS_TYPE":"0","GP_ID":"198602610","MEAN_ELEMENT_THEORY":"SGP4","MEAN_ANOMALY":"288.6982","MEAN_MOTION":"15.06417541","LAUNCH_DATE":"2019-11-11","RA_OF_ASC_NODE":"271.2146","RCS_SIZE":"LARGE","TLE_LINE2":"2 44772  53.0541 271.2146 0001673  71.4189 288.6982 15.06417541128732","CLASSIFICATION_TYPE":"U","PERIAPSIS":"546.001","TLE_LINE1":"1 44772U 19074BM  22071.82932423  .00002864  00000-0  21099-3 0  9994","OBJECT_TYPE":"PAYLOAD","COUNTRY_CODE":"US","INCLINATION":"53.0541","DECAY_DATE":null,"TIME_SYSTEM":"UTC","SITE":"AFETR","REV_AT_EPOCH":"12873","BSTAR":"0.00021099000000","APOAPSIS":"548.318","MEAN_MOTION_DDOT":"0.0000000000000","NORAD_CAT_ID":"44772","EPOCH":"2022-03-12T19:54:13.613472","CENTER_NAME":"EARTH","ECCENTRICITY":"0.00016730","OBJECT_ID":"2019-074BM","ARG_OF_PERICENTER":"71.4189","ELEMENT_SET_NO":"999","REF_FRAME":"TEME","PERIOD":"95.591","OBJECT_NAME":"STARLINK-1068","FILE":"3356931","SEMIMAJOR_AXIS":"6925.295","MEAN_MOTION_DOT":"0.00002864"},{"LAUNCH_DATE":"2020-01-07","RCS_SIZE":"LARGE","RA_OF_ASC_NODE":"50.8302","CLASSIFICATION_TYPE":"U","TLE_LINE2":"2 44914  53.0537  50.8302 0001653  57.2592 302.8556 15.06399504120127","PERIAPSIS":"546.070","TLE_LINE1":"1 44914U 20001A   22071.91225916 -.00001297  00000-0 -68199-4 0  9990","INCLINATION":"53.0537","COUNTRY_CODE":"US","OBJECT_TYPE":"PAYLOAD","DECAY_DATE":null,"TIME_SYSTEM":"UTC","EPHEMERIS_TYPE":"0","GP_ID":"198603376","MEAN_ELEMENT_THEORY":"SGP4","MEAN_MOTION":"15.06399504","MEAN_ANOMALY":"302.8556","ARG_OF_PERICENTER":"57.2592","OBJECT_ID":"2020-001A","REF_FRAME":"TEME","ELEMENT_SET_NO":"999","PERIOD":"95.592","OBJECT_NAME":"STARLINK-1073","FILE":"3356931","SEMIMAJOR_AXIS":"6925.350","MEAN_MOTION_DOT":"-0.00001297","REV_AT_EPOCH":"12012","SITE":"AFETR","BSTAR":"-0.00006819900000","APOAPSIS":"548.360","MEAN_MOTION_DDOT":"0.0000000000000","EPOCH":"2022-03-12T21:53:39.191424","NORAD_CAT_ID":"44914","CENTER_NAME":"EARTH","ECCENTRICITY":"0.00016530"},{"OBJECT_NAME":"STARLINK-1084","FILE":"3356931","SEMIMAJOR_AXIS":"6925.328","MEAN_MOTION_DOT":"0.00000319","OBJECT_ID":"2020-001B","ARG_OF_PERICENTER":"64.5716","REF_FRAME":"TEME","ELEMENT_SET_NO":"999","PERIOD":"95.592","EPOCH":"2022-03-12T22:36:06.737760","NORAD_CAT_ID":"44915","CENTER_NAME":"EARTH","ECCENTRICITY":"0.00015030","REV_AT_EPOCH":"12013","SITE":"AFETR","BSTAR":"0.00004031000000","APOAPSIS":"548.234","MEAN_MOTION_DDOT":"0.0000000000000","TLE_LINE1":"1 44915U 20001B   22071.94174465  .00000319  00000-0  40310-4 0  9993","INCLINATION":"53.0532","COUNTRY_CODE":"US","OBJECT_TYPE":"PAYLOAD","DECAY_DATE":null,"TIME_SYSTEM":"UTC","LAUNCH_DATE":"2020-01-07","RCS_SIZE":"LARGE","RA_OF_ASC_NODE":"50.6921","CLASSIFICATION_TYPE":"U","TLE_LINE2":"2 44915  53.0532  50.6921 0001503  64.5716 295.5428 15.06406755120135","PERIAPSIS":"546.152","MEAN_MOTION":"15.06406755","MEAN_ANOMALY":"295.5428","EPHEMERIS_TYPE":"0","GP_ID":"198603126","MEAN_ELEMENT_THEORY":"SGP4"},{"DECAY_DATE":null,"TIME_SYSTEM":"UTC","TLE_LINE1":"1 44917U 20001D   22071.68005333  .00005080  00000-0  35956-3 0  9992","OBJECT_TYPE":"PAYLOAD","INCLINATION":"53.0537","COUNTRY_CODE":"US","TLE_LINE2":"2 44917  53.0537  51.8771 0001980  55.2846 304.8330 15.06412016120096","CLASSIFICATION_TYPE":"U","PERIAPSIS":"545.806","LAUNCH_DATE":"2020-01-07","RA_OF_ASC_NODE":"51.8771","RCS_SIZE":"LARGE","MEAN_ANOMALY":"304.8330","MEAN_MOTION":"15.06412016","EPHEMERIS_TYPE":"0","MEAN_ELEMENT_THEORY":"SGP4","GP_ID":"198601874","MEAN_MOTION_DOT":"0.00005080","OBJECT_NAME":"STARLINK-1098","SEMIMAJOR_AXIS":"6925.312","FILE":"3356931","ELEMENT_SET_NO":"999","REF_FRAME":"TEME","PERIOD":"95.591","OBJECT_ID":"2020-001D","ARG_OF_PERICENTER":"55.2846","ECCENTRICITY":"0.00019800","CENTER_NAME":"EARTH","NORAD_CAT_ID":"44917","EPOCH":"2022-03-12T16:19:16.607712","APOAPSIS":"548.548","MEAN_MOTION_DDOT":"0.0000000000000","SITE":"AFETR","REV_AT_EPOCH":"12009","BSTAR":"0.00035956000000"}];
